NORAD_CAT_ID,OBJECT_NAME,OBJECT_TYPE,EPOCH,MEAN_MOTION,ECCENTRICITY,INCLINATION,RA_OF_ASC_NODE,ARG_OF_PERICENTER,MEAN_ANOMALY,BSTAR,MEAN_MOTION_DOT,MEAN_MOTION_DDOT,TLE_LINE0,TLE_LINE1,TLE_LINE2,SEMIMAJOR_AXIS,PERIOD,APOGEE,PERIGEE,DECAYED
52579.0,STARLINK-3893,PAYLOAD,2023-01-07 12:12:09,15.08849613,0.0002804,53.2157,288.9181,30.8164,329.2992,-7.8226e-05,-1.534e-05,0.0,0 STARLINK-3893,1 52579U 22051AV  23007.50843836 -.00001534  00000-0 -78226-4 0  9991,2 52579  53.2157 288.9181 0002804  30.8164 329.2992 15.08849613 36758,6917.851,95.437,541.656,537.776,0.0
52579.0,STARLINK-3893,PAYLOAD,2023-01-08 04:06:00,15.08832202,0.0002665,53.2168,285.9408,34.2989,325.8175,0.00010748,1.422e-05,0.0,0 STARLINK-3893,1 52579U 22051AV  23008.17084430  .00001422  00000-0  10748-3 0  9990,2 52579  53.2168 285.9408 0002665  34.2989 325.8175 15.08832202 36859,6917.904,95.438,541.613,537.9259999999998,0.0
52579.0,STARLINK-3893,PAYLOAD,2023-01-09 03:56:48,15.08832901,0.0002387,53.2177,281.4806,22.1124,337.997,3.94e-05,3.39e-06,0.0,0 STARLINK-3893,1 52579U 22051AV  23009.16445425  .00000339  00000-0  39400-4 0  9998,2 52579  53.2177 281.4806 0002387  22.1124 337.9970 15.08832901 37001,6917.901999999999,95.438,541.418,538.116,0.0
52579.0,STARLINK-3893,PAYLOAD,2023-01-10 03:47:35,15.08838168,0.000248,53.2161,277.0218,30.0403,330.0731,0.00021224,3.091e-05,0.0,0 STARLINK-3893,1 52579U 22051AV  23010.15805148  .00003091  00000-0  21224-3 0  9993,2 52579  53.2161 277.0218 0002480  30.0403 330.0731 15.08838168 37150,6917.886,95.438,541.467,538.035,0.0
52579.0,STARLINK-3893,PAYLOAD,2023-01-10 10:09:08,15.08844934,0.000257,53.2153,275.8327,29.2731,330.8405,0.00018188,2.608e-05,0.0,0 STARLINK-3893,1 52579U 22051AV  23010.42301117  .00002608  00000-0  18188-3 0  9998,2 52579  53.2153 275.8327 0002570  29.2731 330.8405 15.08844934 37123,6917.865,95.437,541.508,537.952,0.0
52579.0,STARLINK-3893,PAYLOAD,2023-01-11 09:59:54,15.08848914,0.0002563999999999,53.2148,271.3725,32.9575,327.1577,0.00017682,2.528e-05,0.0,0 STARLINK-3893,1 52579U 22051AV  23011.41660751  .00002528  00000-0  17682-3 0  9999,2 52579  53.2148 271.3725 0002564  32.9575 327.1577 15.08848914 37345,6917.853,95.437,541.492,537.944,0.0
52579.0,STARLINK-3893,PAYLOAD,2023-01-11 19:32:13,15.08848849,0.0002586,53.2143,269.5882,34.1309,325.9849,8.3151e-05,1.035e-05,0.0,0 STARLINK-3893,1 52579U 22051AV  23011.81404557  .00001035  00000-0  83151-4 0  9990,2 52579  53.2143 269.5882 0002586  34.1309 325.9849 15.08848849 37330,6917.853,95.437,541.507,537.929,0.0
52579.0,STARLINK-3893,PAYLOAD,2023-01-12 09:50:42,15.08837462,0.0002305,53.2146,266.9119,31.9117,328.2014,-0.00032989,-5.535e-05,0.0,0 STARLINK-3893,1 52579U 22051AV  23012.41020887 -.00005535  00000-0 -32989-3 0  9990,2 52579  53.2146 266.9119 0002305  31.9117 328.2014 15.08837462 37494,6917.888000000001,95.438,541.3480000000002,538.159,0.0
52579.0,STARLINK-3893,PAYLOAD,2023-01-12 22:33:48,15.08826817,0.0002396,53.2151,264.5337,34.8701,325.2448,-0.00010546,-1.966e-05,0.0,0 STARLINK-3893,1 52579U 22051AV  23012.94014827 -.00001966  00000-0 -10546-3 0  9994,2 52579  53.2151 264.5337 0002396  34.8701 325.2448 15.08826817 37509,6917.920999999999,95.438,541.443,538.128,0.0
52579.0,STARLINK-3893,PAYLOAD,2023-01-13 00:09:11,15.08829707,0.0002461,53.2157,264.2357,34.8563,325.259,-7.4874e-05,-1.4800000000000002e-05,0.0,0 STARLINK-3893,1 52579U 22051AV  23013.00638613 -.00001480  00000-0 -74874-4 0  9993,2 52579  53.2157 264.2357 0002461  34.8563 325.2590 15.08829707 37580,6917.911999999998,95.438,541.479,538.0740000000002,0.0
52579.0,STARLINK-3893,PAYLOAD,2023-01-13 11:16:53,15.08837129,0.0002466,53.2157,262.1534,36.7033,323.4127,-8.7622e-06,-4.28e-06,0.0,0 STARLINK-3893,1 52579U 22051AV  23013.47006160 -.00000428  00000-0 -87622-5 0  9997,2 52579  53.2157 262.1534 0002466  36.7033 323.4127 15.08837129 37653,6917.889,95.438,541.46,538.048,0.0
52579.0,STARLINK-3893,PAYLOAD,2023-01-13 22:24:34,15.08844185,0.0002371,53.2159,260.072,35.3402,324.7747,9.6093e-05,1.241e-05,0.0,0 STARLINK-3893,1 52579U 22051AV  23013.93373568  .00001241  00000-0  96093-4 0  9990,2 52579  53.2159 260.0720 0002371  35.3402 324.7747 15.08844185 37651,6917.868,95.437,541.373,538.092,0.0
52579.0,STARLINK-3893,PAYLOAD,2023-01-14 01:35:21,15.08847727,0.0002497,53.2141,259.4787,38.3897,321.7273,0.00034854,5.264e-05,0.0,0 STARLINK-3893,1 52579U 22051AV  23014.06621593  .00005264  00000-0  34854-3 0  9994,2 52579  53.2141 259.4787 0002497  38.3897 321.7273 15.08847727 37743,6917.857,95.437,541.4490000000001,537.994,0.0
52579.0,STARLINK-3893,PAYLOAD,2023-01-14 22:15:21,15.08841473,0.0002483,53.2156,255.6094,46.4317,313.6881,0.00026084,3.866e-05,0.0,0 STARLINK-3893,1 52579U 22051AV  23014.92733361  .00003866  00000-0  26084-3 0  9998,2 52579  53.2156 255.6094 0002483  46.4317 313.6881 15.08841473 37871,6917.876,95.437,541.4590000000001,538.023,0.0
52579.0,STARLINK-3893,PAYLOAD,2023-01-15 09:23:04,15.08834842,0.0002748,53.2159,253.5301,53.6314,306.4931,7.3273e-05,8.78e-06,0.0,0 STARLINK-3893,1 52579U 22051AV  23015.39102358  .00000878  00000-0  73273-4 0  9999,2 52579  53.2159 253.5301 0002748  53.6314 306.4931 15.08834842 37949,6917.896,95.438,541.6619999999999,537.86,0.0
52579.0,STARLINK-3893,PAYLOAD,2023-01-15 22:06:09,15.08839337,0.0002089,53.2153,251.1511,50.1161,310.0015,4.8223e-05,4.79e-06,0.0,0 STARLINK-3893,1 52579U 22051AV  23015.92094190  .00000479  00000-0  48223-4 0  9996,2 52579  53.2153 251.1511 0002089  50.1161 310.0015 15.08839337 37959,6917.882,95.438,541.193,538.302,0.0
52579.0,STARLINK-3893,PAYLOAD,2023-01-16 18:46:11,15.0881828,0.0002176,53.2154,247.283,58.5298,301.5907,-0.00022715,-3.899e-05,0.0,0 STARLINK-3893,1 52579U 22051AV  23016.78207834 -.00003899  00000-0 -22715-3 0  9990,2 52579  53.2154 247.2830 0002176  58.5298 301.5907 15.08818280 38152,6917.946999999999,95.439,541.317,538.306,0.0
52579.0,STARLINK-3893,PAYLOAD,2023-01-17 10:40:03,15.08816429,0.000168,53.2153,244.3072,88.8681,271.2504,1.6144e-05,-3.1e-07,0.0,0 STARLINK-3893,1 52579U 22051AV  23017.44448704 -.00000031  00000-0  16144-4 0  9991,2 52579  53.2153 244.3072 0001680  88.8681 271.2504 15.08816429 38180,6917.951999999999,95.439,540.98,538.655,0.0
52579.0,STARLINK-3893,PAYLOAD,2023-01-17 21:47:44,15.0883975,0.0001494,53.215,242.2254,93.3425,266.7738,0.00029558,4.419e-05,0.0,0 STARLINK-3893,1 52579U 22051AV  23017.90815804  .00004419  00000-0  29558-3 0  9996,2 52579  53.2150 242.2254 0001494  93.3425 266.7738 15.08839750 38254,6917.880999999999,95.438,540.78,538.7130000000001,0.0
52579.0,STARLINK-3893,PAYLOAD,2023-01-18 00:58:31,15.08843687,0.0001644,53.2149,241.633,72.1842,287.933,0.00035985,5.444e-05,0.0,0 STARLINK-3893,1 52579U 22051AV  23018.04063825  .00005444  00000-0  35985-3 0  9990,2 52579  53.2149 241.6330 0001644  72.1842 287.9330 15.08843687 38342,6917.869000000001,95.437,540.871,538.597,0.0
52579.0,STARLINK-3893,PAYLOAD,2023-01-18 07:20:03,15.08846261,0.0001778,53.2148,240.4441,67.4469,292.6711,0.00056015,8.640000000000001e-05,0.0,0 STARLINK-3893,1 52579U 22051AV  23018.30560128  .00008640  00000-0  56015-3 0  9995,2 52579  53.2148 240.4441 0001778  67.4469 292.6711 15.08846261 38315,6917.861,95.437,540.956,538.496,0.0
52579.0,STARLINK-3893,PAYLOAD,2023-01-18 21:38:32,15.08856418,0.0001678,53.2146,237.7686,68.8058,291.3113,0.0010803,0.00016955,0.0,0 STARLINK-3893,1 52579U 22051AV  23018.90176012  .00016955  00000-0  10803-2 0  9998,2 52579  53.2146 237.7686 0001678  68.8058 291.3113 15.08856418 38408,6917.83,95.437,540.856,538.534,0.0
52579.0,STARLINK-3893,PAYLOAD,2023-01-19 00:49:17,15.08874764,0.0001626,53.2147,237.1733,69.108,291.0086,0.00079624,0.00012419,0.0,0 STARLINK-3893,1 52579U 22051AV  23019.03422939  .00012419  00000-0  79624-3 0  9993,2 52579  53.2147 237.1733 0001626  69.1080 291.0086 15.08874764 38497,6917.774,95.435,540.764,538.514,0.0
52579.0,STARLINK-3893,PAYLOAD,2023-01-19 10:21:36,15.08846395,0.0001696999999999,53.2143,235.3895,77.3274,282.7908,-0.00021776,-3.753e-05,0.0,0 STARLINK-3893,1 52579U 22051AV  23019.43167211 -.00003753  00000-0 -21776-3 0  9994,2 52579  53.2143 235.3895 0001697  77.3274 282.7908 15.08846395 38552,6917.861,95.437,540.9,538.552,0.0
52579.0,STARLINK-3893,PAYLOAD,2023-01-19 13:32:22,15.08844425,0.0001645,53.2142,234.7951,76.8274,283.2902,-0.00022706,-3.9e-05,0.0,0 STARLINK-3893,1 52579U 22051AV  23019.56415211 -.00003900  00000-0 -22706-3 0  9992,2 52579  53.2142 234.7951 0001645  76.8274 283.2902 15.08844425 38501,6917.866999999999,95.437,540.87,538.594,0.0
52579.0,STARLINK-3893,PAYLOAD,2023-01-20 08:37:00,15.08843538,0.0001553,53.2138,231.2271,80.2864,279.8304,0.00017287,2.465e-05,0.0,0 STARLINK-3893,1 52579U 22051AV  23020.35903252  .00002465  00000-0  17287-3 0  9999,2 52579  53.2138 231.2271 0001553  80.2864 279.8304 15.08843538 38629,6917.87,95.437,540.809,538.66,0.0
52579.0,STARLINK-3893,PAYLOAD,2023-01-20 19:44:42,15.08845311,0.0001526,53.2135,229.1454,81.0278,279.0887,0.00043433,6.632e-05,0.0,0 STARLINK-3893,1 52579U 22051AV  23020.82271331  .00006632  00000-0  43433-3 0  9999,2 52579  53.2135 229.1454 0001526  81.0278 279.0887 15.08845311 38767,6917.8640000000005,95.437,540.785,538.673,0.0
52579.0,STARLINK-3893,PAYLOAD,2023-01-21 08:27:47,15.08843635,0.0001575999999999,53.2134,226.7664,79.85,280.267,0.00027607,4.109e-05,0.0,0 STARLINK-3893,1 52579U 22051AV  23021.35263419  .00004109  00000-0  27607-3 0  9998,2 52579  53.2134 226.7664 0001576  79.8500 280.2670 15.08843635 38840,6917.869000000001,95.437,540.825,538.644,0.0
52579.0,STARLINK-3893,PAYLOAD,2023-01-21 21:10:53,15.08835305,0.0001511,53.2134,224.3872,80.6625,279.4538,5.9194e-05,6.54e-06,0.0,0 STARLINK-3893,1 52579U 22051AV  23021.88255799  .00000654  00000-0  59194-4 0  9996,2 52579  53.2134 224.3872 0001511  80.6625 279.4538 15.08835305 38929,6917.895,95.438,540.805,538.714,0.0
